[{"OBJECT_NAME":"ONEWEB-0566","OBJECT_ID":"2023-043R","EPOCH":"2026-03-10T11:46:27.774336","MEAN_MOTION":13.21826644,"ECCENTRICITY":0.0001928,"INCLINATION":87.9163,"RA_OF_ASC_NODE":263.6524,"ARG_OF_PERICENTER":98.2792,"MEAN_ANOMALY":261.856,"EPHEMERIS_TYPE":0,"CLASSIFICATION_TYPE":"U","NORAD_CAT_ID":56061,"ELEMENT_SET_NO":999,"REV_AT_EPOCH":14519,"BSTAR":0.00019957,"MEAN_MOTION_DOT":9.5e-7,"MEAN_MOTION_DDOT":0},{"OBJECT_NAME":"ONEWEB-0568","OBJECT_ID":"2023-043S","EPOCH":"2026-03-10T12:27:11.048832","MEAN_MOTION":13.16596609,"ECCENTRICITY":0.0001562,"INCLINATION":87.9007,"RA_OF_ASC_NODE":248.3957,"ARG_OF_PERICENTER":85.4282,"MEAN_ANOMALY":274.7027,"EPHEMERIS_TYPE":0,"CLASSIFICATION_TYPE":"U","NORAD_CAT_ID":56062,"ELEMENT_SET_NO":999,"REV_AT_EPOCH":14599,"BSTAR":2.6769e-6,"MEAN_MOTION_DOT":1.4e-7,"MEAN_MOTION_DDOT":0},{"OBJECT_NAME":"ONEWEB-0574","OBJECT_ID":"2023-043T","EPOCH":"2026-03-10T13:25:59.770848","MEAN_MOTION":13.21825212,"ECCENTRICITY":0.0001437,"INCLINATION":87.9175,"RA_OF_ASC_NODE":263.6311,"ARG_OF_PERICENTER":95.2801,"MEAN_ANOMALY":264.8497,"EPHEMERIS_TYPE":0,"CLASSIFICATION_TYPE":"U","NORAD_CAT_ID":56063,"ELEMENT_SET_NO":999,"REV_AT_EPOCH":14524,"BSTAR":2.7635e-5,"MEAN_MOTION_DOT":2.4e-7,"MEAN_MOTION_DDOT":0},{"OBJECT_NAME":"ONEWEB-0575","OBJECT_ID":"2023-043U","EPOCH":"2026-03-10T12:18:03.532032","MEAN_MOTION":13.16594165,"ECCENTRICITY":0.0001218,"INCLINATION":87.9004,"RA_OF_ASC_NODE":248.3945,"ARG_OF_PERICENTER":89.2247,"MEAN_ANOMALY":270.9023,"EPHEMERIS_TYPE":0,"CLASSIFICATION_TYPE":"U","NORAD_CAT_ID":56064,"ELEMENT_SET_NO":999,"REV_AT_EPOCH":14598,"BSTAR":-3.7625e-5,"MEAN_MOTION_DOT":-2.0e-8,"MEAN_MOTION_DDOT":0},{"OBJECT_NAME":"ONEWEB-0576","OBJECT_ID":"2023-043V","EPOCH":"2026-03-10T11:50:42.357120","MEAN_MOTION":13.16594024,"ECCENTRICITY":0.0001397,"INCLINATION":87.9009,"RA_OF_ASC_NODE":248.4023,"ARG_OF_PERICENTER":92.2309,"MEAN_ANOMALY":267.8981,"EPHEMERIS_TYPE":0,"CLASSIFICATION_TYPE":"U","NORAD_CAT_ID":56065,"ELEMENT_SET_NO":999,"REV_AT_EPOCH":14597,"BSTAR":0.00028063,"MEAN_MOTION_DOT":1.2e-6,"MEAN_MOTION_DDOT":0},{"OBJECT_NAME":"ONEWEB-0577","OBJECT_ID":"2023-043W","EPOCH":"2026-03-10T11:59:49.421184","MEAN_MOTION":13.16593885,"ECCENTRICITY":8.21e-5,"INCLINATION":87.9007,"RA_OF_ASC_NODE":248.3997,"ARG_OF_PERICENTER":98.6337,"MEAN_ANOMALY":261.4886,"EPHEMERIS_TYPE":0,"CLASSIFICATION_TYPE":"U","NORAD_CAT_ID":56066,"ELEMENT_SET_NO":999,"REV_AT_EPOCH":14600,"BSTAR":6.9576e-5,"MEAN_MOTION_DOT":3.9e-7,"MEAN_MOTION_DDOT":0},{"OBJECT_NAME":"ONEWEB-0578","OBJECT_ID":"2023-043X","EPOCH":"2026-03-10T11:18:00.452448","MEAN_MOTION":13.21825275,"ECCENTRICITY":0.0001655,"INCLINATION":87.9165,"RA_OF_ASC_NODE":263.656,"ARG_OF_PERICENTER":83.088,"MEAN_ANOMALY":277.0442,"EPHEMERIS_TYPE":0,"CLASSIFICATION_TYPE":"U","NORAD_CAT_ID":56067,"ELEMENT_SET_NO":999,"REV_AT_EPOCH":14519,"BSTAR":-0.00055621,"MEAN_MOTION_DOT":-2.17e-6,"MEAN_MOTION_DDOT":0},{"OBJECT_NAME":"ONEWEB-0579","OBJECT_ID":"2023-043Y","EPOCH":"2026-03-10T12:52:48.542016","MEAN_MOTION":13.21826592,"ECCENTRICITY":0.0001711,"INCLINATION":87.9173,"RA_OF_ASC_NODE":263.6334,"ARG_OF_PERICENTER":101.7591,"MEAN_ANOMALY":258.3735,"EPHEMERIS_TYPE":0,"CLASSIFICATION_TYPE":"U","NORAD_CAT_ID":56068,"ELEMENT_SET_NO":999,"REV_AT_EPOCH":14521,"BSTAR":4.8552e-5,"MEAN_MOTION_DOT":3.3e-7,"MEAN_MOTION_DDOT":0},{"OBJECT_NAME":"ONEWEB-0581","OBJECT_ID":"2023-043Z","EPOCH":"2026-03-10T12:08:56.811840","MEAN_MOTION":13.16594436,"ECCENTRICITY":0.0001017,"INCLINATION":87.9008,"RA_OF_ASC_NODE":248.4102,"ARG_OF_PERICENTER":100.8315,"MEAN_ANOMALY":259.293,"EPHEMERIS_TYPE":0,"CLASSIFICATION_TYPE":"U","NORAD_CAT_ID":56069,"ELEMENT_SET_NO":999,"REV_AT_EPOCH":14597,"BSTAR":-1.1726e-5,"MEAN_MOTION_DOT":8.0e-8,"MEAN_MOTION_DDOT":0},{"OBJECT_NAME":"ONEWEB-0609","OBJECT_ID":"2023-043AA","EPOCH":"2026-03-10T12:53:51.652896","MEAN_MOTION":13.15547681,"ECCENTRICITY":0.0001697,"INCLINATION":87.8934,"RA_OF_ASC_NODE":278.9139,"ARG_OF_PERICENTER":90.0427,"MEAN_ANOMALY":270.0897,"EPHEMERIS_TYPE":0,"CLASSIFICATION_TYPE":"U","NORAD_CAT_ID":56070,"ELEMENT_SET_NO":999,"REV_AT_EPOCH":14346,"BSTAR":-0.0003662,"MEAN_MOTION_DOT":-1.25e-6,"MEAN_MOTION_DDOT":0},{"OBJECT_NAME":"ONEWEB-0613","OBJECT_ID":"2023-043AB","EPOCH":"2026-03-10T12:47:01.125888","MEAN_MOTION":13.15547424,"ECCENTRICITY":0.0001767,"INCLINATION":87.8936,"RA_OF_ASC_NODE":278.9257,"ARG_OF_PERICENTER":95.9462,"MEAN_ANOMALY":264.187,"EPHEMERIS_TYPE":0,"CLASSIFICATION_TYPE":"U","NORAD_CAT_ID":56071,"ELEMENT_SET_NO":999,"REV_AT_EPOCH":14346,"BSTAR":-0.00033481,"MEAN_MOTION_DOT":-1.13e-6,"MEAN_MOTION_DDOT":0},{"OBJECT_NAME":"ONEWEB-0630","OBJECT_ID":"2023-043AC","EPOCH":"2026-03-10T12:40:10.324128","MEAN_MOTION":13.15547931,"ECCENTRICITY":0.0001731,"INCLINATION":87.8937,"RA_OF_ASC_NODE":278.8963,"ARG_OF_PERICENTER":97.227,"MEAN_ANOMALY":262.9057,"EPHEMERIS_TYPE":0,"CLASSIFICATION_TYPE":"U","NORAD_CAT_ID":56072,"ELEMENT_SET_NO":999,"REV_AT_EPOCH":14345,"BSTAR":-0.00020974,"MEAN_MOTION_DOT":-6.6e-7,"MEAN_MOTION_DDOT":0},{"OBJECT_NAME":"ONEWEB-0632","OBJECT_ID":"2023-043AD","EPOCH":"2026-03-10T12:33:19.656288","MEAN_MOTION":13.15547683,"ECCENTRICITY":0.0001423,"INCLINATION":87.8939,"RA_OF_ASC_NODE":278.9149,"ARG_OF_PERICENTER":93.519,"MEAN_ANOMALY":266.6103,"EPHEMERIS_TYPE":0,"CLASSIFICATION_TYPE":"U","NORAD_CAT_ID":56073,"ELEMENT_SET_NO":999,"REV_AT_EPOCH":14345,"BSTAR":-0.00022931,"MEAN_MOTION_DOT":-7.3e-7,"MEAN_MOTION_DDOT":0},{"OBJECT_NAME":"ONEWEB-0633","OBJECT_ID":"2023-043AE","EPOCH":"2026-03-10T12:24:11.742912","MEAN_MOTION":13.15557666,"ECCENTRICITY":0.0002047,"INCLINATION":87.8946,"RA_OF_ASC_NODE":278.8842,"ARG_OF_PERICENTER":91.2258,"MEAN_ANOMALY":268.9106,"EPHEMERIS_TYPE":0,"CLASSIFICATION_TYPE":"U","NORAD_CAT_ID":56074,"ELEMENT_SET_NO":999,"REV_AT_EPOCH":14343,"BSTAR":-0.0056143,"MEAN_MOTION_DOT":-2.101e-5,"MEAN_MOTION_DDOT":0},{"OBJECT_NAME":"ONEWEB-0634","OBJECT_ID":"2023-043AF","EPOCH":"2026-03-10T12:03:39.951936","MEAN_MOTION":13.1554748,"ECCENTRICITY":0.0001856,"INCLINATION":87.8937,"RA_OF_ASC_NODE":278.9354,"ARG_OF_PERICENTER":81.5925,"MEAN_ANOMALY":278.5415,"EPHEMERIS_TYPE":0,"CLASSIFICATION_TYPE":"U","NORAD_CAT_ID":56075,"ELEMENT_SET_NO":999,"REV_AT_EPOCH":14342,"BSTAR":1.176e-5,"MEAN_MOTION_DOT":1.7e-7,"MEAN_MOTION_DDOT":0},{"OBJECT_NAME":"ONEWEB-0635","OBJECT_ID":"2023-043AG","EPOCH":"2026-03-10T11:56:48.885792","MEAN_MOTION":13.15548273,"ECCENTRICITY":0.0001322,"INCLINATION":87.8943,"RA_OF_ASC_NODE":278.8903,"ARG_OF_PERICENTER":93.4294,"MEAN_ANOMALY":266.6988,"EPHEMERIS_TYPE":0,"CLASSIFICATION_TYPE":"U","NORAD_CAT_ID":56076,"ELEMENT_SET_NO":999,"REV_AT_EPOCH":14345,"BSTAR":0.00018753,"MEAN_MOTION_DOT":8.3e-7,"MEAN_MOTION_DDOT":0},{"OBJECT_NAME":"ONEWEB-0636","OBJECT_ID":"2023-043AH","EPOCH":"2026-03-10T13:34:55.848288","MEAN_MOTION":13.15547837,"ECCENTRICITY":0.000136,"INCLINATION":87.894,"RA_OF_ASC_NODE":278.8908,"ARG_OF_PERICENTER":89.4984,"MEAN_ANOMALY":270.6302,"EPHEMERIS_TYPE":0,"CLASSIFICATION_TYPE":"U","NORAD_CAT_ID":56077,"ELEMENT_SET_NO":999,"REV_AT_EPOCH":14344,"BSTAR":0.00034901,"MEAN_MOTION_DOT":1.44e-6,"MEAN_MOTION_DDOT":0}]
