ONEWEB-0566             
1 56061U 23043R   26069.49059924  .00000095  00000+0  19957-3 0  9992
2 56061  87.9163 263.6524 0001928  98.2792 261.8560 13.21826644145194
ONEWEB-0568             
1 56062U 23043S   26069.51887788  .00000014  00000+0  26769-5 0  9995
2 56062  87.9007 248.3957 0001562  85.4282 274.7027 13.16596609145996
ONEWEB-0574             
1 56063U 23043T   26069.55971957  .00000024  00000+0  27635-4 0  9995
2 56063  87.9175 263.6311 0001437  95.2801 264.8497 13.21825212145244
ONEWEB-0575             
1 56064U 23043U   26069.51254088 -.00000002  00000+0 -37625-4 0  9999
2 56064  87.9004 248.3945 0001218  89.2247 270.9023 13.16594165145981
ONEWEB-0576             
1 56065U 23043V   26069.49354580  .00000120  00000+0  28063-3 0  9999
2 56065  87.9009 248.4023 0001397  92.2309 267.8981 13.16594024145977
ONEWEB-0577             
1 56066U 23043W   26069.49987756  .00000039  00000+0  69576-4 0  9991
2 56066  87.9007 248.3997 0000821  98.6337 261.4886 13.16593885146000
ONEWEB-0578             
1 56067U 23043X   26069.47083857 -.00000217  00000+0 -55621-3 0  9994
2 56067  87.9165 263.6560 0001655  83.0880 277.0442 13.21825275145196
ONEWEB-0579             
1 56068U 23043Y   26069.53667294  .00000033  00000+0  48552-4 0  9995
2 56068  87.9173 263.6334 0001711 101.7591 258.3735 13.21826592145218
ONEWEB-0581             
1 56069U 23043Z   26069.50621310  .00000008  00000+0 -11726-4 0  9998
2 56069  87.9008 248.4102 0001017 100.8315 259.2930 13.16594436145976
ONEWEB-0609             
1 56070U 23043AA  26069.53740339 -.00000125  00000+0 -36620-3 0  9996
2 56070  87.8934 278.9139 0001697  90.0427 270.0897 13.15547681143465
ONEWEB-0613             
1 56071U 23043AB  26069.53265192 -.00000113  00000+0 -33481-3 0  9995
2 56071  87.8936 278.9257 0001767  95.9462 264.1870 13.15547424143460
ONEWEB-0630             
1 56072U 23043AC  26069.52789727 -.00000066  00000+0 -20974-3 0  9990
2 56072  87.8937 278.8963 0001731  97.2270 262.9057 13.15547931143453
ONEWEB-0632             
1 56073U 23043AD  26069.52314417 -.00000073  00000+0 -22931-3 0  9994
2 56073  87.8939 278.9149 0001423  93.5190 266.6103 13.15547683143458
ONEWEB-0633             
1 56074U 23043AE  26069.51680258 -.00002101  00000+0 -56143-2 0  9998
2 56074  87.8946 278.8842 0002047  91.2258 268.9106 13.15557666143437
ONEWEB-0634             
1 56075U 23043AF  26069.50254574  .00000017  00000+0  11760-4 0  9996
2 56075  87.8937 278.9354 0001856  81.5925 278.5415 13.15547480143429
ONEWEB-0635             
1 56076U 23043AG  26069.49778803  .00000083  00000+0  18753-3 0  9992
2 56076  87.8943 278.8903 0001322  93.4294 266.6988 13.15548273143452
ONEWEB-0636             
1 56077U 23043AH  26069.56592417  .00000144  00000+0  34901-3 0  9997
2 56077  87.8940 278.8908 0001360  89.4984 270.6302 13.15547837143447
